NORAD_CAT_ID,OBJECT_NAME,OBJECT_TYPE,EPOCH,MEAN_MOTION,ECCENTRICITY,INCLINATION,RA_OF_ASC_NODE,ARG_OF_PERICENTER,MEAN_ANOMALY,BSTAR,MEAN_MOTION_DOT,MEAN_MOTION_DDOT,TLE_LINE0,TLE_LINE1,TLE_LINE2,SEMIMAJOR_AXIS,PERIOD,APOGEE,PERIGEE,DECAYED
53969.0,STARLINK-4468,PAYLOAD,2023-06-10 11:50:48,15.08842039,0.0001182,53.2167,47.6384,86.0781,274.0346,6.9332e-05,8.16e-06,0.0,0 STARLINK-4468,1 53969U 22125F   23161.49362052  .00000816  00000-0  69332-4 0  9990,2 53969  53.2167  47.6384 0001182  86.0781 274.0346 15.08842039 37873,6917.874,95.437,540.557,538.921,0.0
53969.0,STARLINK-4468,PAYLOAD,2023-06-10 19:47:44,15.08843609,0.0001171,53.2171,46.1522,79.0508,281.0616,4.0914e-05,3.63e-06,0.0,0 STARLINK-4468,1 53969U 22125F   23161.82482117  .00000363  00000-0  40914-4 0  9994,2 53969  53.2171  46.1522 0001171  79.0508 281.0616 15.08843609 37921,6917.869,95.437,540.544,538.924,0.0
53969.0,STARLINK-4468,PAYLOAD,2023-06-10 22:58:30,15.08848265,0.0001107,53.2179,45.556,85.361,274.7508,4.6611e-05,4.54e-06,0.0,0 STARLINK-4468,1 53969U 22125F   23161.95729745  .00000454  00000-0  46611-4 0  9990,2 53969  53.2179  45.5560 0001107  85.3610 274.7508 15.08848265 38010,6917.855,95.437,540.486,538.954,0.0
53969.0,STARLINK-4468,PAYLOAD,2023-06-11 16:27:45,15.08834426,0.0001032,53.2171,42.2867,94.0116,266.0994,2.5652e-05,1.2e-06,0.0,0 STARLINK-4468,1 53969U 22125F   23162.68594626  .00000120  00000-0  25652-4 0  9991,2 53969  53.2171  42.2867 0001032  94.0116 266.0994 15.08834426 38120,6917.897,95.438,540.476,539.048,0.0
53969.0,STARLINK-4468,PAYLOAD,2023-06-11 22:49:18,15.08837215,9.85e-05,53.2164,41.0987,88.5444,271.5661,4.5933e-05,4.43e-06,0.0,0 STARLINK-4468,1 53969U 22125F   23162.95090463  .00000443  00000-0  45933-4 0  9993,2 53969  53.2164  41.0987 0000985  88.5444 271.5661 15.08837215 38097,6917.889,95.438,540.435,539.072,0.0
53969.0,STARLINK-4468,PAYLOAD,2023-06-12 08:21:37,15.08836817,0.0001067,53.217,39.3135,85.9638,274.1476,-4.1931e-06,-3.54e-06,0.0,0 STARLINK-4468,1 53969U 22125F   23163.34834681 -.00000354  00000-0 -41931-5 0  9993,2 53969  53.2170  39.3135 0001067  85.9638 274.1476 15.08836817 38154,6917.89,95.438,540.493,539.017,0.0
53969.0,STARLINK-4468,PAYLOAD,2023-06-12 22:40:05,15.08835107,0.0001052,53.2168,36.6368,93.4018,266.7094,2.5214e-05,1.13e-06,0.0,0 STARLINK-4468,1 53969U 22125F   23163.94450810  .00000113  00000-0  25214-4 0  9993,2 53969  53.2168  36.6368 0001052  93.4018 266.7094 15.08835107 38243,6917.895,95.438,540.488,539.033,0.0
53969.0,STARLINK-4468,PAYLOAD,2023-06-13 01:50:51,15.08841552,0.0001084,53.2168,36.0412,95.8958,264.2158,3.7176e-05,3.04e-06,0.0,0 STARLINK-4468,1 53969U 22125F   23164.07698364  .00000304  00000-0  37176-4 0  9998,2 53969  53.2168  36.0412 0001084  95.8958 264.2158 15.08841552 38336,6917.876,95.437,540.491,538.991,0.0
53969.0,STARLINK-4468,PAYLOAD,2023-06-13 17:44:43,15.08833792,0.0001133,53.2173,33.0678,89.5309,270.5813,3.6303e-05,2.9e-06,0.0,0 STARLINK-4468,1 53969U 22125F   23164.73938984  .00000290  00000-0  36303-4 0  9991,2 53969  53.2173  33.0678 0001133  89.5309 270.5813 15.08833792 38434,6917.899,95.438,540.548,538.981,0.0
53969.0,STARLINK-4468,PAYLOAD,2023-06-13 22:30:52,15.08837056,0.0001078,53.2169,32.1746,87.9913,272.1203,5.6177e-05,6.06e-06,0.0,0 STARLINK-4468,1 53969U 22125F   23164.93810687  .00000606  00000-0  56177-4 0  9994,2 53969  53.2169  32.1746 0001078  87.9913 272.1203 15.08837056 38399,6917.889,95.438,540.5,539.009,0.0
53969.0,STARLINK-4468,PAYLOAD,2023-06-14 00:06:15,15.08838852,0.0001108,53.2167,31.8784,91.0065,269.1054,7.1924e-05,8.57e-06,0.0,0 STARLINK-4468,1 53969U 22125F   23165.00434559  .00000857  00000-0  71924-4 0  9998,2 53969  53.2167  31.8784 0001108  91.0065 269.1054 15.08838852 38477,6917.884,95.438,540.515,538.982,0.0
53969.0,STARLINK-4468,PAYLOAD,2023-06-14 14:24:43,15.08837554,0.0001069,53.2168,29.204,106.5274,253.5836,5.8067e-05,6.36e-06,0.0,0 STARLINK-4468,1 53969U 22125F   23165.60050744  .00000636  00000-0  58067-4 0  9992,2 53969  53.2168  29.2040 0001069 106.5274 253.5836 15.08837554 38499,6917.888,95.438,540.492,539.013,0.0
53969.0,STARLINK-4468,PAYLOAD,2023-06-14 16:00:07,15.08833746,0.0001077,53.2171,28.9055,107.0795,253.0315,2.6347e-05,1.31e-06,0.0,0 STARLINK-4468,1 53969U 22125F   23165.66675124  .00000131  00000-0  26347-4 0  9999,2 53969  53.2171  28.9055 0001077 107.0795 253.0315 15.08833746 38573,6917.9,95.438,540.51,539.019,0.0
53969.0,STARLINK-4468,PAYLOAD,2023-06-14 23:57:02,15.08838539,0.0001013,53.2171,27.4184,99.0077,261.103,7.5269e-06,-1.68e-06,0.0,0 STARLINK-4468,1 53969U 22125F   23165.99794997 -.00000168  00000-0  75269-5 0  9994,2 53969  53.2171  27.4184 0001013  99.0077 261.1030 15.08838539 38550,6917.885,95.438,540.451,539.049,0.0
53969.0,STARLINK-4468,PAYLOAD,2023-06-15 14:15:31,15.08817786,9.88e-05,53.2175,24.741,103.7514,256.3588,0.00032158,4.831e-05,0.0,0 STARLINK-4468,1 53969U 22125F   23166.59411700  .00004831  00000-0  32158-3 0  9997,2 53969  53.2175  24.7410 0000988 103.7514 256.3588 15.08817786 38718,6917.948,95.439,540.497,539.13,0.0
53969.0,STARLINK-4468,PAYLOAD,2023-06-15 23:47:49,15.08849529,0.0001092,53.2172,22.9574,90.86,269.2518,5.8013e-05,6.36e-06,0.0,0 STARLINK-4468,1 53969U 22125F   23166.99154210  .00000636  00000-0  58013-4 0  9999,2 53969  53.2172  22.9574 0001092  90.8600 269.2518 15.08849529 38777,6917.851,95.437,540.472,538.961,0.0
53969.0,STARLINK-4468,PAYLOAD,2023-06-16 07:44:45,15.08844769,0.0001008,53.2169,21.4694,93.1436,266.9671,2.0154e-06,-2.56e-06,0.0,0 STARLINK-4468,1 53969U 22125F   23167.32274521 -.00000256  00000-0  20154-5 0  9990,2 53969  53.2169  21.4694 0001008  93.1436 266.9671 15.08844769 38821,6917.866,95.437,540.428,539.033,0.0
53969.0,STARLINK-4468,PAYLOAD,2023-06-16 20:27:49,15.08847261,0.000108,53.2167,19.091,86.9735,273.138,0.00011643,1.566e-05,0.0,0 STARLINK-4468,1 53969U 22125F   23167.85265945  .00001566  00000-0  11643-3 0  9993,2 53969  53.2167  19.0910 0001080  86.9735 273.1380 15.08847261 38833,6917.858,95.437,540.47,538.976,0.0
53969.0,STARLINK-4468,PAYLOAD,2023-06-16 23:38:35,15.08851345,0.0001071,53.2174,18.4959,87.5641,272.5474,0.00013984,1.939e-05,0.0,0 STARLINK-4468,1 53969U 22125F   23167.98513564  .00001939  00000-0  13984-3 0  9994,2 53969  53.2174  18.4959 0001071  87.5641 272.5474 15.08851345 38925,6917.846,95.437,540.452,538.97,0.0
53969.0,STARLINK-4468,PAYLOAD,2023-06-17 07:35:32,15.08835174,0.0001073,53.2167,17.0098,91.7248,268.3867,-6.4328e-06,-3.9e-06,0.0,0 STARLINK-4468,1 53969U 22125F   23168.31635008 -.00000390  00000-0 -64328-5 0  9992,2 53969  53.2167  17.0098 0001073  91.7248 268.3867 15.08835174 38974,6917.895,95.438,540.502,539.018,0.0
53969.0,STARLINK-4468,PAYLOAD,2023-06-17 20:18:38,15.08835012,0.0001376,53.217,14.6298,95.294,264.8209,-8.3811e-05,-1.621e-05,0.0,0 STARLINK-4468,1 53969U 22125F   23168.84627518 -.00001621  00000-0 -83811-4 0  9992,2 53969  53.2170  14.6298 0001376  95.2940 264.8209 15.08835012 38980,6917.896,95.438,540.713,538.809,0.0
53969.0,STARLINK-4468,PAYLOAD,2023-06-17 21:54:01,15.08831179,0.0001178,53.217,14.3328,97.3993,262.7133,-0.00011301,-2.085e-05,0.0,0 STARLINK-4468,1 53969U 22125F   23168.91251860 -.00002085  00000-0 -11301-3 0  9992,2 53969  53.2170  14.3328 0001178  97.3993 262.7133 15.08831179 39065,6917.907,95.438,540.587,538.957,0.0
53969.0,STARLINK-4468,PAYLOAD,2023-06-18 13:47:52,15.08841567,0.0001091,53.2182,11.3613,87.1908,272.9209,1.8916e-05,1.3e-07,0.0,0 STARLINK-4468,1 53969U 22125F   23169.57490900  .00000013  00000-0  18916-4 0  9992,2 53969  53.2182  11.3613 0001091  87.1908 272.9209 15.08841567 39169,6917.876,95.437,540.495,538.986,0.0
53969.0,STARLINK-4468,PAYLOAD,2023-06-18 20:09:24,15.08846385,9.42e-05,53.2179,10.1721,86.7365,273.3735,8.0043e-05,9.87e-06,0.0,0 STARLINK-4468,1 53969U 22125F   23169.83986325  .00000987  00000-0  80043-4 0  9992,2 53969  53.2179  10.1721 0000942  86.7365 273.3735 15.08846385 39137,6917.861,95.437,540.378,539.074,0.0
53969.0,STARLINK-4468,PAYLOAD,2023-06-18 23:20:10,15.08851562,9.68e-05,53.2182,9.577,86.6167,273.4935,6.4509e-05,7.39e-06,0.0,0 STARLINK-4468,1 53969U 22125F   23169.97234009  .00000739  00000-0  64509-4 0  9996,2 53969  53.2182   9.5770 0000968  86.6167 273.4935 15.08851562 39220,6917.845,95.437,540.38,539.04,0.0
53969.0,STARLINK-4468,PAYLOAD,2023-06-19 20:00:12,15.08830357,0.000102,53.2177,5.7105,95.0363,265.0746,0.00012381,1.683e-05,0.0,0 STARLINK-4468,1 53969U 22125F   23170.83347349  .00001683  00000-0  12381-3 0  9994,2 53969  53.2177   5.7105 0001020  95.0363 265.0746 15.08830357 39288,6917.91,95.438,540.48,539.069,0.0
53969.0,STARLINK-4468,PAYLOAD,2023-06-19 21:35:35,15.0883291,9.61e-05,53.2174,5.4117,92.2381,267.8721,9.22e-05,1.18e-05,0.0,0 STARLINK-4468,1 53969U 22125F   23170.89971277  .00001180  00000-0  92200-4 0  9994,2 53969  53.2174   5.4117 0000961  92.2381 267.8721 15.08832910 39366,6917.902,95.438,540.432,539.102,0.0
53969.0,STARLINK-4468,PAYLOAD,2023-06-20 11:54:03,15.08837086,9.92e-05,53.2183,2.7382,101.7574,258.3529,-3.634e-05,-8.66e-06,0.0,0 STARLINK-4468,1 53969U 22125F   23171.49587633 -.00000866  00000-0 -36340-4 0  9995,2 53969  53.2183   2.7382 0000992 101.7574 258.3529 15.08837086 39386,6917.889,95.438,540.441,539.068,0.0
53969.0,STARLINK-4468,PAYLOAD,2023-06-20 19:50:59,15.08838922,9.95e-05,53.2184,1.2516,101.6326,258.4778,-2.0267e-05,-6.1e-06,0.0,0 STARLINK-4468,1 53969U 22125F   23171.82707498 -.00000610  00000-0 -20267-4 0  9993,2 53969  53.2184   1.2516 0000995 101.6326 258.4778 15.08838922 39430,6917.884,95.438,540.437,539.06,0.0
53969.0,STARLINK-4468,PAYLOAD,2023-06-21 13:20:13,15.08838898,0.0001005,53.2183,357.9807,102.0829,258.0276,-2.411e-05,-6.71e-06,0.0,0 STARLINK-4468,1 53969U 22125F   23172.55571710 -.00000671  00000-0 -24110-4 0  9998,2 53969  53.2183 357.9807 0001005 102.0829 258.0276 15.08838898 39542,6917.884,95.438,540.444,539.054,0.0
